[
    {
        "Altitude(m)": 717707.2599017406,
        "Argument of Periapsis(deg)": 0.0011390121186627068,
        "Eccentricity": 0.0,
        "Inclination(deg)": 45.0,
        "Latitude(deg)": -44.72687373264,
        "Longitude(deg)": 5.080112271895283,
        "Mean Anomaly(deg)": -97.02847833525189,
        "RAAN(deg)": 204.9989248058542,
        "Satellite Name": "Constellation 1 918",
        "Satellite Number": 918,
        "Semi-Major Axis(m)": 7083131.272910544,
        "Time(s)": 19
    },
    {
        "Altitude(m)": 717710.2685843373,
        "Argument of Periapsis(deg)": 0.0011989601249081123,
        "Eccentricity": 0.0,
        "Inclination(deg)": 45.0,
        "Latitude(deg)": -44.73419368111115,
        "Longitude(deg)": 5.160393601129408,
        "Mean Anomaly(deg)": -96.96777719500201,
        "RAAN(deg)": 204.9988682166886,
        "Satellite Name": "Constellation 1 918",
        "Satellite Number": 918,
        "Semi-Major Axis(m)": 7083131.272910544,
        "Time(s)": 20
    },
    {
        "Altitude(m)": 717713.2514973856,
        "Argument of Periapsis(deg)": 0.001258908131153518,
        "Eccentricity": 0.0,
        "Inclination(deg)": 45.0,
        "Latitude(deg)": -44.74145127023581,
        "Longitude(deg)": 5.240696087109699,
        "Mean Anomaly(deg)": -96.90707605475217,
        "RAAN(deg)": 204.99881162752305,
        "Satellite Name": "Constellation 1 918",
        "Satellite Number": 918,
        "Semi-Major Axis(m)": 7083131.272910544,
        "Time(s)": 21
    },
    {
        "Altitude(m)": 717716.2086298605,
        "Argument of Periapsis(deg)": 0.0013188561373989236,
        "Eccentricity": 0.0,
        "Inclination(deg)": 45.0,
        "Latitude(deg)": -44.74864646900274,
        "Longitude(deg)": 5.321019391272868,
        "Mean Anomaly(deg)": -96.8463749145022,
        "RAAN(deg)": 204.9987550383575,
        "Satellite Name": "Constellation 1 918",
        "Satellite Number": 918,
        "Semi-Major Axis(m)": 7083131.272910544,
        "Time(s)": 22
    },
    {
        "Altitude(m)": 717719.1399708254,
        "Argument of Periapsis(deg)": 0.0013788041436443293,
        "Eccentricity": 0.0,
        "Inclination(deg)": 45.0,
        "Latitude(deg)": -44.755779246647194,
        "Longitude(deg)": 5.401363678990227,
        "Mean Anomaly(deg)": -96.78567377425232,
        "RAAN(deg)": 204.9986984491919,
        "Satellite Name": "Constellation 1 918",
        "Satellite Number": 918,
        "Semi-Major Axis(m)": 7083131.272910544,
        "Time(s)": 23
    },
    {
        "Altitude(m)": 717722.0455094452,
        "Argument of Periapsis(deg)": 0.001438752149889735,
        "Eccentricity": 0.0,
        "Inclination(deg)": 45.0,
        "Latitude(deg)": -44.762849572653394,
        "Longitude(deg)": 5.481728610988841,
        "Mean Anomaly(deg)": -96.72497263400237,
        "RAAN(deg)": 204.99864186002634,
        "Satellite Name": "Constellation 1 918",
        "Satellite Number": 918,
        "Semi-Major Axis(m)": 7083131.272910544,
        "Time(s)": 24
    },
    {
        "Altitude(m)": 717724.9252349739,
        "Argument of Periapsis(deg)": 0.0014987001561351404,
        "Eccentricity": 0.0,
        "Inclination(deg)": 45.0,
        "Latitude(deg)": -44.76985741675368,
        "Longitude(deg)": 5.562114015741342,
        "Mean Anomaly(deg)": -96.66427149375254,
        "RAAN(deg)": 204.99858527086076,
        "Satellite Name": "Constellation 1 918",
        "Satellite Number": 918,
        "Semi-Major Axis(m)": 7083131.272910544,
        "Time(s)": 25
    },
    {
        "Altitude(m)": 717727.7791367598,
        "Argument of Periapsis(deg)": 0.001558648162380546,
        "Eccentricity": 0.0,
        "Inclination(deg)": 45.0,
        "Latitude(deg)": -44.77680274892976,
        "Longitude(deg)": 5.642519721372374,
        "Mean Anomaly(deg)": -96.60357035350266,
        "RAAN(deg)": 204.9985286816952,
        "Satellite Name": "Constellation 1 918",
        "Satellite Number": 918,
        "Semi-Major Axis(m)": 7083131.272910544,
        "Time(s)": 26
    },
    {
        "Altitude(m)": 717730.607204256,
        "Argument of Periapsis(deg)": 0.0016185961686259519,
        "Eccentricity": 0.0,
        "Inclination(deg)": 45.0,
        "Latitude(deg)": -44.783685539413014,
        "Longitude(deg)": 5.722945555660751,
        "Mean Anomaly(deg)": -96.5428692132527,
        "RAAN(deg)": 204.9984720925296,
        "Satellite Name": "Constellation 1 918",
        "Satellite Number": 918,
        "Semi-Major Axis(m)": 7083131.272910544,
        "Time(s)": 27
    },
    {
        "Altitude(m)": 717733.4094269995,
        "Argument of Periapsis(deg)": 0.0016785441748713573,
        "Eccentricity": 0.0,
        "Inclination(deg)": 45.0,
        "Latitude(deg)": -44.79050575868529,
        "Longitude(deg)": 5.803391346041606,
        "Mean Anomaly(deg)": -96.48216807300284,
        "RAAN(deg)": 204.99841550336404,
        "Satellite Name": "Constellation 1 918",
        "Satellite Number": 918,
        "Semi-Major Axis(m)": 7083131.272910544,
        "Time(s)": 28
    },
    {
        "Altitude(m)": 717736.1857946285,
        "Argument of Periapsis(deg)": 0.001738492181116763,
        "Eccentricity": 0.0,
        "Inclination(deg)": 45.0,
        "Latitude(deg)": -44.79726337747936,
        "Longitude(deg)": 5.883856919610107,
        "Mean Anomaly(deg)": -96.42146693275298,
        "RAAN(deg)": 204.99835891419846,
        "Satellite Name": "Constellation 1 918",
        "Satellite Number": 918,
        "Semi-Major Axis(m)": 7083131.272910544,
        "Time(s)": 29
    },
    {
        "Altitude(m)": 717738.9362968769,
        "Argument of Periapsis(deg)": 0.0017984401873621684,
        "Eccentricity": 0.0,
        "Inclination(deg)": 45.0,
        "Latitude(deg)": -44.80395836677996,
        "Longitude(deg)": 5.964341935026382,
        "Mean Anomaly(deg)": -96.36076579250303,
        "RAAN(deg)": 204.9983023250329,
        "Satellite Name": "Constellation 1 918",
        "Satellite Number": 918,
        "Semi-Major Axis(m)": 7083131.272910544,
        "Time(s)": 30
    },
    {
        "Altitude(m)": 717741.6609235686,
        "Argument of Periapsis(deg)": 0.0018583881936075745,
        "Eccentricity": 0.0,
        "Inclination(deg)": 45.0,
        "Latitude(deg)": -44.81059069782297,
        "Longitude(deg)": 6.044846554906026,
        "Mean Anomaly(deg)": -96.30006465225316,
        "RAAN(deg)": 204.99824573586736,
        "Satellite Name": "Constellation 1 918",
        "Satellite Number": 918,
        "Semi-Major Axis(m)": 7083131.272910544,
        "Time(s)": 31
    },
    {
        "Altitude(m)": 717744.3596646319,
        "Argument of Periapsis(deg)": 0.0019183361998529795,
        "Eccentricity": 0.0,
        "Inclination(deg)": 45.0,
        "Latitude(deg)": -44.81716034209797,
        "Longitude(deg)": 6.125370437241466,
        "Mean Anomaly(deg)": -96.23936351200318,
        "RAAN(deg)": 204.99818914670175,
        "Satellite Name": "Constellation 1 918",
        "Satellite Number": 918,
        "Semi-Major Axis(m)": 7083131.272910544,
        "Time(s)": 32
    },
    {
        "Altitude(m)": 717747.0325100812,
        "Argument of Periapsis(deg)": 0.0019782842060983856,
        "Eccentricity": 0.0,
        "Inclination(deg)": 45.0,
        "Latitude(deg)": -44.82366727134756,
        "Longitude(deg)": 6.205913407791958,
        "Mean Anomaly(deg)": -96.17866237175335,
        "RAAN(deg)": 204.9981325575362,
        "Satellite Name": "Constellation 1 918",
        "Satellite Number": 918,
        "Semi-Major Axis(m)": 7083131.272910544,
        "Time(s)": 33
    },
    {
        "Altitude(m)": 717749.6794500325,
        "Argument of Periapsis(deg)": 0.0020382322123437906,
        "Eccentricity": 0.0,
        "Inclination(deg)": 45.0,
        "Latitude(deg)": -44.83011145756817,
        "Longitude(deg)": 6.286475291989937,
        "Mean Anomaly(deg)": -96.11796123150336,
        "RAAN(deg)": 204.9980759683706,
        "Satellite Name": "Constellation 1 918",
        "Satellite Number": 918,
        "Semi-Major Axis(m)": 7083131.272910544,
        "Time(s)": 34
    },
    {
        "Altitude(m)": 717752.3004746925,
        "Argument of Periapsis(deg)": 0.002098180218589197,
        "Eccentricity": 0.0,
        "Inclination(deg)": 45.0,
        "Latitude(deg)": -44.83649287301074,
        "Longitude(deg)": 6.367055914942904,
        "Mean Anomaly(deg)": -96.05726009125353,
        "RAAN(deg)": 204.99801937920506,
        "Satellite Name": "Constellation 1 918",
        "Satellite Number": 918,
        "Semi-Major Axis(m)": 7083131.272910544,
        "Time(s)": 35
    },
    {
        "Altitude(m)": 717754.8955743695,
        "Argument of Periapsis(deg)": 0.002158128224834602,
        "Eccentricity": 0.0,
        "Inclination(deg)": 45.0,
        "Latitude(deg)": -44.84281149018117,
        "Longitude(deg)": 6.4476551014369115,
        "Mean Anomaly(deg)": -95.99655895100365,
        "RAAN(deg)": 204.99796279003945,
        "Satellite Name": "Constellation 1 918",
        "Satellite Number": 918,
        "Semi-Major Axis(m)": 7083131.272910544,
        "Time(s)": 36
    },
    {
        "Altitude(m)": 717757.4647394642,
        "Argument of Periapsis(deg)": 0.002218076231080008,
        "Eccentricity": 0.0,
        "Inclination(deg)": 45.0,
        "Latitude(deg)": -44.84906728184132,
        "Longitude(deg)": 6.528272507842253,
        "Mean Anomaly(deg)": -95.9358578107537,
        "RAAN(deg)": 204.9979062008739,
        "Satellite Name": "Constellation 1 918",
        "Satellite Number": 918,
        "Semi-Major Axis(m)": 7083131.272910544,
        "Time(s)": 37
    }
]